{
  "norad_id": 61201,
  "name": "STARLINK-11257 [DTC]",
  "history": [
    {
      "epoch": "2026-03-28T16:56:34.928448Z",
      "apogee_km": 360.64572710903576,
      "perigee_km": 358.76236577973395,
      "latitude_deg": 1.8380783453905795e-05,
      "longitude_deg": 2.3866168924589184,
      "height_km": 360.5655063478544,
      "semi_major_axis_km": 6737.841046444385,
      "eccentricity": 0.00013976,
      "inclination_deg": 53.16,
      "raan_deg": 82.6547,
      "arg_perigee_deg": 86.8469,
      "mean_anomaly_deg": 273.2709,
      "mean_motion_rev_day": 15.69717934
    },
    {
      "epoch": "2026-03-29T05:10:03.742176Z",
      "apogee_km": 360.5660491185354,
      "perigee_km": 358.90448981688314,
      "latitude_deg": 1.4900308942592188e-05,
      "longitude_deg": 176.00210771754408,
      "height_km": 360.89605893079255,
      "semi_major_axis_km": 6737.872269467709,
      "eccentricity": 0.0001233,
      "inclination_deg": 53.1594,
      "raan_deg": 80.1423,
      "arg_perigee_deg": 107.3185,
      "mean_anomaly_deg": 252.7968,
      "mean_motion_rev_day": 15.69707023
    },
    {
      "epoch": "2026-03-29T23:30:14.733216Z",
      "apogee_km": 360.35243310574333,
      "perigee_km": 359.00621740395763,
      "latitude_deg": -4.6968533115441497e-05,
      "longitude_deg": -103.56158261833836,
      "height_km": 360.35054443029446,
      "semi_major_axis_km": 6737.81632525485,
      "eccentricity": 9.99e-05,
      "inclination_deg": 53.1586,
      "raan_deg": 76.3775,
      "arg_perigee_deg": 68.8807,
      "mean_anomaly_deg": 291.2317,
      "mean_motion_rev_day": 15.69726573
    },
    {
      "epoch": "2026-03-29T23:30:14.734080Z",
      "apogee_km": 360.35216359309015,
      "perigee_km": 359.0064869166108,
      "latitude_deg": -4.352709916765912e-05,
      "longitude_deg": -103.56158366426764,
      "height_km": 360.3506415367766,
      "semi_major_axis_km": 6737.81632525485,
      "eccentricity": 9.986e-05,
      "inclination_deg": 53.1586,
      "raan_deg": 76.3775,
      "arg_perigee_deg": 68.8807,
      "mean_anomaly_deg": 291.2317,
      "mean_motion_rev_day": 15.69726573
    },
    {
      "epoch": "2026-03-30T08:40:23.985408Z",
      "apogee_km": 360.78363007378266,
      "perigee_km": 358.88729510391113,
      "latitude_deg": 4.7225772379696106e-05,
      "longitude_deg": 116.63537001424953,
      "height_km": 361.0392960655785,
      "semi_major_axis_km": 6737.972462588847,
      "eccentricity": 0.00014072,
      "inclination_deg": 53.1591,
      "raan_deg": 74.4895,
      "arg_perigee_deg": 107.8493,
      "mean_anomaly_deg": 252.2679,
      "mean_motion_rev_day": 15.69672011
    },
    {
      "epoch": "2026-03-30T16:18:48.220992Z",
      "apogee_km": 360.76415772172186,
      "perigee_km": 358.75680330432806,
      "latitude_deg": -4.65162782997885e-05,
      "longitude_deg": 0.15355260713938088,
      "height_km": 360.8280794184242,
      "semi_major_axis_km": 6737.897480513025,
      "eccentricity": 0.00014896,
      "inclination_deg": 53.1604,
      "raan_deg": 72.9225,
      "arg_perigee_deg": 98.8496,
      "mean_anomaly_deg": 261.269,
      "mean_motion_rev_day": 15.69698213
    },
    {
      "epoch": "2026-03-31T15:14:03.541344Z",
      "apogee_km": 360.42953246478555,
      "perigee_km": 359.0927334752041,
      "latitude_deg": 2.5031333854019803e-05,
      "longitude_deg": 10.689343539055972,
      "height_km": 360.7569965286918,
      "semi_major_axis_km": 6737.898132969995,
      "eccentricity": 9.92e-05,
      "inclination_deg": 53.1591,
      "raan_deg": 68.2134,
      "arg_perigee_deg": 97.0606,
      "mean_anomaly_deg": 263.0525,
      "mean_motion_rev_day": 15.69697985
    }
  ]
}